[{"CCSDS_OMM_VERS":"2.0","COMMENT":"GENERATED VIA SPACE-TRACK.ORG API","CREATION_DATE":"2020-06-27T05:56:09","ORIGINATOR":"18 SPCS","OBJECT_NAME":"STARLINK-1024","OBJECT_ID":"2019-074S","CENTER_NAME":"EARTH","REF_FRAME":"TEME","TIME_SYSTEM":"UTC","MEAN_ELEMENT_THEORY":"SGP4","EPOCH":"2020-06-27T04:00:00.999936","MEAN_MOTION":"15.05601955","ECCENTRICITY":"0.00008080","INCLINATION":"52.9986","RA_OF_ASC_NODE":"190.9350","ARG_OF_PERICENTER":"95.5959","MEAN_ANOMALY":"223.1571","EPHEMERIS_TYPE":"0","CLASSIFICATION_TYPE":"U","NORAD_CAT_ID":"44729","ELEMENT_SET_NO":"999","REV_AT_EPOCH":"3492","BSTAR":"-0.00193290000000","MEAN_MOTION_DOT":"-0.00028345","MEAN_MOTION_DDOT":"0.0000000000000","SEMIMAJOR_AXIS":"6927.795","PERIOD":"95.642","APOAPSIS":"550.220","PERIAPSIS":"549.100","OBJECT_TYPE":"PAYLOAD","RCS_SIZE":"LARGE","COUNTRY_CODE":"US","LAUNCH_DATE":"2019-11-11","SITE":"AFETR","DECAY_DATE":null,"FILE":"2773826","GP_ID":"156456058","TLE_LINE0":"0 STARLINK-1024","TLE_LINE1":"1 44729U 19074S   20179.16667824 -.00028345  00000-0 -19329-2 0  9996","TLE_LINE2":"2 44729  52.9986 190.9350 0000808  95.5959 223.1571 15.05601955 34928"},{"CCSDS_OMM_VERS":"2.0","COMMENT":"GENERATED VIA SPACE-TRACK.ORG API","CREATION_DATE":"2020-06-27T19:39:57","ORIGINATOR":"18 SPCS","OBJECT_NAME":"STARLINK-1024","OBJECT_ID":"2019-074S","CENTER_NAME":"EARTH","REF_FRAME":"TEME","TIME_SYSTEM":"UTC","MEAN_ELEMENT_THEORY":"SGP4","EPOCH":"2020-06-27T06:00:00.999648","MEAN_MOTION":"15.05599475","ECCENTRICITY":"0.00008150","INCLINATION":"52.9985","RA_OF_ASC_NODE":"190.5614","ARG_OF_PERICENTER":"88.4957","MEAN_ANOMALY":"322.1880","EPHEMERIS_TYPE":"0","CLASSIFICATION_TYPE":"U","NORAD_CAT_ID":"44729","ELEMENT_SET_NO":"999","REV_AT_EPOCH":"176","BSTAR":"-0.00209260000000","MEAN_MOTION_DOT":"-0.00030652","MEAN_MOTION_DDOT":"0.0000000000000","SEMIMAJOR_AXIS":"6927.803","PERIOD":"95.642","APOAPSIS":"550.232","PERIAPSIS":"549.103","OBJECT_TYPE":"PAYLOAD","RCS_SIZE":"LARGE","COUNTRY_CODE":"US","LAUNCH_DATE":"2019-11-11","SITE":"AFETR","DECAY_DATE":null,"FILE":"2774290","GP_ID":"156485677","TLE_LINE0":"0 STARLINK-1024","TLE_LINE1":"1 44729U 19074S   20179.25001157 -.00030652 +00000-0 -20926-2 0  9996","TLE_LINE2":"2 44729 052.9985 190.5614 0000815 088.4957 322.1880 15.05599475001765"},{"CCSDS_OMM_VERS":"2.0","COMMENT":"GENERATED VIA SPACE-TRACK.ORG API","CREATION_DATE":"2020-06-27T10:06:09","ORIGINATOR":"18 SPCS","OBJECT_NAME":"STARLINK-1024","OBJECT_ID":"2019-074S","CENTER_NAME":"EARTH","REF_FRAME":"TEME","TIME_SYSTEM":"UTC","MEAN_ELEMENT_THEORY":"SGP4","EPOCH":"2020-06-27T08:00:01.999872","MEAN_MOTION":"15.05587784","ECCENTRICITY":"0.00008260","INCLINATION":"52.9986","RA_OF_ASC_NODE":"190.1876","ARG_OF_PERICENTER":"84.2771","MEAN_ANOMALY":"58.4010","EPHEMERIS_TYPE":"0","CLASSIFICATION_TYPE":"U","NORAD_CAT_ID":"44729","ELEMENT_SET_NO":"999","REV_AT_EPOCH":"3495","BSTAR":"-0.00075238000000","MEAN_MOTION_DOT":"-0.00011226","MEAN_MOTION_DDOT":"0.0000000000000","SEMIMAJOR_AXIS":"6927.839","PERIOD":"95.643","APOAPSIS":"550.276","PERIAPSIS":"549.131","OBJECT_TYPE":"PAYLOAD","RCS_SIZE":"LARGE","COUNTRY_CODE":"US","LAUNCH_DATE":"2019-11-11","SITE":"AFETR","DECAY_DATE":null,"FILE":"2774037","GP_ID":"156461081","TLE_LINE0":"0 STARLINK-1024","TLE_LINE1":"1 44729U 19074S   20179.33335648 -.00011226  00000-0 -75238-3 0  9993","TLE_LINE2":"2 44729  52.9986 190.1876 0000826  84.2771  58.4010 15.05587784 34953"},{"CCSDS_OMM_VERS":"2.0","COMMENT":"GENERATED VIA SPACE-TRACK.ORG API","CREATION_DATE":"2020-06-27T13:46:10","ORIGINATOR":"18 SPCS","OBJECT_NAME":"STARLINK-1024","OBJECT_ID":"2019-074S","CENTER_NAME":"EARTH","REF_FRAME":"TEME","TIME_SYSTEM":"UTC","MEAN_ELEMENT_THEORY":"SGP4","EPOCH":"2020-06-27T12:00:02.000160","MEAN_MOTION":"15.05568835","ECCENTRICITY":"0.00007820","INCLINATION":"52.9987","RA_OF_ASC_NODE":"189.4396","ARG_OF_PERICENTER":"78.1531","MEAN_ANOMALY":"248.3824","EPHEMERIS_TYPE":"0","CLASSIFICATION_TYPE":"U","NORAD_CAT_ID":"44729","ELEMENT_SET_NO":"999","REV_AT_EPOCH":"3497","BSTAR":"0.00256310000000","MEAN_MOTION_DOT":"0.00037251","MEAN_MOTION_DDOT":"0.0000000000000","SEMIMAJOR_AXIS":"6927.897","PERIOD":"95.644","APOAPSIS":"550.303","PERIAPSIS":"549.220","OBJECT_TYPE":"PAYLOAD","RCS_SIZE":"LARGE","COUNTRY_CODE":"US","LAUNCH_DATE":"2019-11-11","SITE":"AFETR","DECAY_DATE":null,"FILE":"2774068","GP_ID":"156461605","TLE_LINE0":"0 STARLINK-1024","TLE_LINE1":"1 44729U 19074S   20179.50002315  .00037251  00000-0  25631-2 0  9999","TLE_LINE2":"2 44729  52.9987 189.4396 0000782  78.1531 248.3824 15.05568835 34970"},{"CCSDS_OMM_VERS":"2.0","COMMENT":"GENERATED VIA SPACE-TRACK.ORG API","CREATION_DATE":"2020-06-27T17:56:09","ORIGINATOR":"18 SPCS","OBJECT_NAME":"STARLINK-1024","OBJECT_ID":"2019-074S","CENTER_NAME":"EARTH","REF_FRAME":"TEME","TIME_SYSTEM":"UTC","MEAN_ELEMENT_THEORY":"SGP4","EPOCH":"2020-06-27T16:00:00.999936","MEAN_MOTION":"15.05604155","ECCENTRICITY":"0.00007670","INCLINATION":"52.9989","RA_OF_ASC_NODE":"188.6906","ARG_OF_PERICENTER":"83.5993","MEAN_ANOMALY":"66.7166","EPHEMERIS_TYPE":"0","CLASSIFICATION_TYPE":"U","NORAD_CAT_ID":"44729","ELEMENT_SET_NO":"999","REV_AT_EPOCH":"3500","BSTAR":"-0.00236970000000","MEAN_MOTION_DOT":"-0.00034659","MEAN_MOTION_DDOT":"0.0000000000000","SEMIMAJOR_AXIS":"6927.788","PERIOD":"95.642","APOAPSIS":"550.185","PERIAPSIS":"549.122","OBJECT_TYPE":"PAYLOAD","RCS_SIZE":"LARGE","COUNTRY_CODE":"US","LAUNCH_DATE":"2019-11-11","SITE":"AFETR","DECAY_DATE":null,"FILE":"2774269","GP_ID":"156466081","TLE_LINE0":"0 STARLINK-1024","TLE_LINE1":"1 44729U 19074S   20179.66667824 -.00034659  00000-0 -23697-2 0  9999","TLE_LINE2":"2 44729  52.9989 188.6906 0000767  83.5993  66.7166 15.05604155 35007"},{"CCSDS_OMM_VERS":"2.0","COMMENT":"GENERATED VIA SPACE-TRACK.ORG API","CREATION_DATE":"2020-06-28T03:24:51","ORIGINATOR":"18 SPCS","OBJECT_NAME":"STARLINK-1024","OBJECT_ID":"2019-074S","CENTER_NAME":"EARTH","REF_FRAME":"TEME","TIME_SYSTEM":"UTC","MEAN_ELEMENT_THEORY":"SGP4","EPOCH":"2020-06-27T22:00:00.999936","MEAN_MOTION":"15.05563676","ECCENTRICITY":"0.00007570","INCLINATION":"52.9989","RA_OF_ASC_NODE":"187.5672","ARG_OF_PERICENTER":"97.7523","MEAN_ANOMALY":"328.3574","EPHEMERIS_TYPE":"0","CLASSIFICATION_TYPE":"U","NORAD_CAT_ID":"44729","ELEMENT_SET_NO":"999","REV_AT_EPOCH":"176","BSTAR":"0.00357670000000","MEAN_MOTION_DOT":"0.00052197","MEAN_MOTION_DDOT":"0.0000000000000","SEMIMAJOR_AXIS":"6927.912","PERIOD":"95.645","APOAPSIS":"550.302","PERIAPSIS":"549.253","OBJECT_TYPE":"PAYLOAD","RCS_SIZE":"LARGE","COUNTRY_CODE":"US","LAUNCH_DATE":"2019-11-11","SITE":"AFETR","DECAY_DATE":null,"FILE":"2774488","GP_ID":"156511689","TLE_LINE0":"0 STARLINK-1024","TLE_LINE1":"1 44729U 19074S   20179.91667824 +.00052197 +00000-0 +35767-2 0  9993","TLE_LINE2":"2 44729 052.9989 187.5672 0000757 097.7523 328.3574 15.05563676001768"},{"CCSDS_OMM_VERS":"2.0","COMMENT":"GENERATED VIA SPACE-TRACK.ORG API","CREATION_DATE":"2020-06-28T06:06:09","ORIGINATOR":"18 SPCS","OBJECT_NAME":"STARLINK-1024","OBJECT_ID":"2019-074S","CENTER_NAME":"EARTH","REF_FRAME":"TEME","TIME_SYSTEM":"UTC","MEAN_ELEMENT_THEORY":"SGP4","EPOCH":"2020-06-28T04:00:00.999936","MEAN_MOTION":"15.05605608","ECCENTRICITY":"0.00008020","INCLINATION":"52.9990","RA_OF_ASC_NODE":"186.4459","ARG_OF_PERICENTER":"90.5886","MEAN_ANOMALY":"251.2906","EPHEMERIS_TYPE":"0","CLASSIFICATION_TYPE":"U","NORAD_CAT_ID":"44729","ELEMENT_SET_NO":"999","REV_AT_EPOCH":"3507","BSTAR":"-0.00194530000000","MEAN_MOTION_DOT":"-0.00028527","MEAN_MOTION_DDOT":"0.0000000000000","SEMIMAJOR_AXIS":"6927.784","PERIOD":"95.642","APOAPSIS":"550.204","PERIAPSIS":"549.093","OBJECT_TYPE":"PAYLOAD","RCS_SIZE":"LARGE","COUNTRY_CODE":"US","LAUNCH_DATE":"2019-11-11","SITE":"AFETR","DECAY_DATE":null,"FILE":"2774496","GP_ID":"156531934","TLE_LINE0":"0 STARLINK-1024","TLE_LINE1":"1 44729U 19074S   20180.16667824 -.00028527  00000-0 -19453-2 0  9998","TLE_LINE2":"2 44729  52.9990 186.4459 0000802  90.5886 251.2906 15.05605608 35071"},{"CCSDS_OMM_VERS":"2.0","COMMENT":"GENERATED VIA SPACE-TRACK.ORG API","CREATION_DATE":"2020-06-28T18:09:08","ORIGINATOR":"18 SPCS","OBJECT_NAME":"STARLINK-1024","OBJECT_ID":"2019-074S","CENTER_NAME":"EARTH","REF_FRAME":"TEME","TIME_SYSTEM":"UTC","MEAN_ELEMENT_THEORY":"SGP4","EPOCH":"2020-06-28T06:00:00.999648","MEAN_MOTION":"15.05601070","ECCENTRICITY":"0.00008150","INCLINATION":"52.9989","RA_OF_ASC_NODE":"186.0723","ARG_OF_PERICENTER":"84.9313","MEAN_ANOMALY":"348.8798","EPHEMERIS_TYPE":"0","CLASSIFICATION_TYPE":"U","NORAD_CAT_ID":"44729","ELEMENT_SET_NO":"999","REV_AT_EPOCH":"176","BSTAR":"-0.00199300000000","MEAN_MOTION_DOT":"-0.00029214","MEAN_MOTION_DDOT":"0.0000000000000","SEMIMAJOR_AXIS":"6927.798","PERIOD":"95.642","APOAPSIS":"550.227","PERIAPSIS":"549.098","OBJECT_TYPE":"PAYLOAD","RCS_SIZE":"LARGE","COUNTRY_CODE":"US","LAUNCH_DATE":"2019-11-11","SITE":"AFETR","DECAY_DATE":null,"FILE":"2774888","GP_ID":"156561855","TLE_LINE0":"0 STARLINK-1024","TLE_LINE1":"1 44729U 19074S   20180.25001157 -.00029214 +00000-0 -19930-2 0  9993","TLE_LINE2":"2 44729 052.9989 186.0723 0000815 084.9313 348.8798 15.05601070001765"}]